0 ARIANE 40 R/B
1 25979U 99064C   13281.81299905  .00002282  00000-0  25384-3 0  6523
2 25979 098.1835 051.5189 0008164 056.0062 304.1928 14.88183163749184
0 ARIANE 40 R/B
1 25979U 99064C   13282.82155007  .00002966  00000-0  32785-3 0  6532
2 25979 098.1831 052.5594 0008228 052.8360 307.3606 14.88192048749334
0 ARIANE 40 R/B
1 25979U 99064C   13284.09904162  .00003795  00000-0  41756-3 0  6547
2 25979 098.1832 053.8776 0008216 049.1550 311.0377 14.88197858749520
0 ARIANE 40 R/B
1 25979U 99064C   13286.78847693  .00002322  00000-0  25799-3 0  6566
2 25979 098.1837 056.6535 0008035 040.2515 319.9294 14.88215979749925
0 ARIANE 40 R/B
1 25979U 99064C   13288.13318202  .00004237  00000-0  46517-3 0  6575
2 25979 098.1840 058.0415 0007936 036.1033 324.0717 14.88223986750128
0 ARIANE 40 R/B
1 25979U 99064C   13289.14170506  .00003964  00000-0  43556-3 0  6587
2 25979 098.1838 059.0822 0007877 032.3828 327.7869 14.88228797750271
0 ARIANE 40 R/B
1 25979U 99064C   13290.15022510  .00003991  00000-0  43840-3 0  6598
2 25979 098.1842 060.1232 0007805 029.5137 330.6517 14.88233946750428
0 ARIANE 40 R/B
1 25979U 99064C   13291.15874113  .00004098  00000-0  44997-3 0  6608
2 25979 098.1847 061.1643 0007781 027.1561 333.0060 14.88241045750573
0 ARIANE 40 R/B
1 25979U 99064C   13292.16725281  .00003963  00000-0  43526-3 0  6619
2 25979 098.1854 062.2055 0007717 024.1805 335.9771 14.88247274750724
0 ARIANE 40 R/B
1 25979U 99064C   13293.17575943  .00004261  00000-0  46741-3 0  6624
2 25979 098.1856 063.2465 0007728 021.1324 339.0209 14.88254668750879
0 ARIANE 40 R/B
1 25979U 99064C   13294.18426159  .00003567  00000-0  39225-3 0  6638
2 25979 098.1856 064.2879 0007623 017.4504 342.6972 14.88264060751023
0 ARIANE 40 R/B
1 25979U 99064C   13295.19275718  .00003697  00000-0  40632-3 0  6642
2 25979 098.1854 065.3291 0007557 013.6601 346.4818 14.88269429751174
